STARLINK-30216          
1 57451U 23105X   25283.24406424 -.00000162  00000+0  30852-5 0  9991
2 57451  43.0035 358.7981 0001147 266.2775  93.7936 15.02532382122775
STARLINK-30165          
1 57457U 23107A   25282.80707325  .00002002  00000+0  16323-3 0  9993
2 57457  43.0034  79.0871 0001327 273.2173  86.8518 15.02533892122407
STARLINK-30140          
1 57458U 23107B   25282.80374479  .00002327  00000+0  18729-3 0  9996
2 57458  43.0034  79.0611 0001207 275.5018  84.5687 15.02532019122413
STARLINK-30185          
1 57459U 23107C   25282.80041449 -.00001009  00000+0 -59623-4 0  9992
2 57459  43.0044  79.0390 0001375 269.7418  90.3267 15.02527205122414
STARLINK-30077          
1 57460U 23107D   25282.79708418 -.00000449  00000+0 -18148-4 0  9992
2 57460  43.0041  79.0106 0001289 255.0375 105.0325 15.02531745122415
STARLINK-30229          
1 57461U 23107E   25282.47801134 -.00002027  00000+0 -13506-3 0  9993
2 57461  43.0020  80.9119 0001322 270.8521  89.2169 15.02531003122364
STARLINK-30088          
1 57462U 23107F   25282.79375007 -.00000105  00000+0  72959-5 0  9997
2 57462  43.0042  78.9827 0002070 285.7764  74.2850 15.02536223122413
STARLINK-30091          
1 57463U 23107G   25282.52118186 -.00000482  00000+0 -20639-4 0  9998
2 57463  43.0033  80.3787 0001213 266.7839  93.2865 15.02537380122373
STARLINK-30116          
1 57465U 23107J   25282.78820308 -.00002914  00000+0 -20075-3 0  9999
2 57465  43.0031  78.9447 0000918 261.4572  98.6166 15.02527933122417
STARLINK-30092          
1 57467U 23107L   25282.51452000  .00001474  00000+0  12417-3 0  9991
2 57467  43.0037  80.3273 0001806 242.9029 117.1629 15.02546993122370
STARLINK-30039          
1 57468U 23107M   25282.51120380  .00002097  00000+0  17027-3 0  9999
2 57468  43.0036  80.3032 0001450 280.5829  79.4850 15.02533628122371
STARLINK-30171          
1 57469U 23107N   25282.50453861 -.00000875  00000+0 -49678-4 0  9994
2 57469  43.0064  80.2570 0001332 275.3402  84.7289 15.02539545122376
STARLINK-30186          
1 57470U 23107P   25282.77377848  .00001526  00000+0  12798-3 0  9999
2 57470  43.0025  78.8338 0001623 265.8251  94.2406 15.02541371122411
STARLINK-30190          
1 57471U 23107Q   25282.60930008  .00371961  00000+0  52883-2 0  9996
2 57471  42.9847  35.7476 0034531 350.0308   9.9865 15.53689835122901
STARLINK-30204          
1 57472U 23107R   25282.83359604 -.00000528  00000+0 -24047-4 0  9992
2 57472  43.0021  78.4212 0001080 269.8619  90.2099 15.02532837122427
STARLINK-30187          
1 57473U 23107S   25282.83026463  .00001056  00000+0  93195-4 0  9992
2 57473  43.0029  78.3873 0001212 268.3969  91.6735 15.02545546122420
STARLINK-30110          
1 57474U 23107T   25282.39721606  .00122043  00000+0  35709-2 0  9990
2 57474  42.9979  39.5737 0028064 334.0038  25.9405 15.33714140122845
STARLINK-30155          
1 57475U 23107U   25282.88675289  .00000741  00000+0  69923-4 0  9997
2 57475  43.0042  77.9604 0001492 275.9629  84.1043 15.02534841122437
STARLINK-30161          
1 57476U 23107V   25282.75046528  .00000068  00000+0  20142-4 0  9994
2 57476  43.0042  78.6589 0001442 267.0877  92.9800 15.02535520122411
STARLINK-30176          
1 57477U 23107W   25282.88116508  .00004665  00000+0  35985-3 0  9992
2 57477  43.0046  77.9196 0001825 271.0642  88.9991 15.02569514122430
STARLINK-30154          
1 57495U 23113A   25283.23501478  .00000844  00000+0  77492-4 0  9998
2 57495  43.0025 115.2179 0001160 270.9990  89.0719 15.02544175120861
STARLINK-30145          
1 57496U 23113B   25283.21836222 -.00000370  00000+0 -12319-4 0  9998
2 57496  43.0026 115.1058 0001223 260.1582  99.9122 15.02535402120913
STARLINK-30226          
1 57497U 23113C   25282.88264453  .00000041  00000+0  18132-4 0  9994
2 57497  43.0031 116.8971 0001147 256.4036 103.6679 15.02534918120875
STARLINK-30203          
1 57498U 23113D   25283.00561010 -.00000004  00000+0  14804-4 0  9991
2 57498  43.0034 116.0930 0001263 258.5105 101.5595 15.02532479121016
STARLINK-30169          
1 57499U 23113E   25283.23530556  .00000495  00000+0  51735-4 0  9995
2 57499  43.0032 102.5156 0001197 261.7337  98.3370 15.02537742121016
STARLINK-30164          
1 57500U 23113F   25283.26153505 -.00001581  00000+0 -10199-3 0  9993
2 57500  43.0031 114.5689 0001358 268.1288  91.9399 15.02533247121035
STARLINK-30072          
1 57501U 23113G   25283.25487242 -.00000222  00000+0 -13393-5 0  9993
2 57501  43.0009 114.5122 0000852 267.5937  92.4808 15.02534281120922
STARLINK-30228          
1 57502U 23113H   25282.85055711  .00062283  00000+0  17964-2 0  9999
2 57502  42.9925  80.9066 0016935 304.4846  55.4408 15.34725773121288
STARLINK-30230          
1 57503U 23113J   25283.26485915  .00000401  00000+0  44747-4 0  9994
2 57503  43.0026 114.5887 0001467 271.0504  89.0170 15.02535540120927
STARLINK-30213          
1 57504U 23113K   25283.25166249 -.00000209  00000+0 -37534-6 0  9996
2 57504  43.0026 115.3371 0000939 270.8921  89.1814 15.02532024121020
