OBJECT_NAME,OBJECT_ID,EPOCH,MEAN_MOTION,ECCENTRICITY,INCLINATION,RA_OF_ASC_NODE,ARG_OF_PERICENTER,MEAN_ANOMALY,EPHEMERIS_TYPE,CLASSIFICATION_TYPE,NORAD_CAT_ID,ELEMENT_SET_NO,REV_AT_EPOCH,BSTAR,MEAN_MOTION_DOT,MEAN_MOTION_DDOT
STARLINK-30216,2023-105X,2025-10-10T05:51:27.150336,15.02532382,.00011477,43.0035,358.7981,266.2775,93.7936,0,U,57451,999,12277,.3085191E-5,-.162E-5,0
STARLINK-30165,2023-107A,2025-10-09T19:22:11.128800,15.02533892,.00013274,43.0034,79.0871,273.2173,86.8518,0,U,57457,999,12240,.1632261E-3,.2002E-4,0
STARLINK-30140,2023-107B,2025-10-09T19:17:23.549856,15.02532019,.00012072,43.0034,79.0611,275.5018,84.5687,0,U,57458,999,12241,.18729159E-3,.2327E-4,0
STARLINK-30185,2023-107C,2025-10-09T19:12:35.811936,15.02527205,.00013758,43.0044,79.0390,269.7418,90.3267,0,U,57459,999,12241,-.59623012E-4,-.1009E-4,0
STARLINK-30077,2023-107D,2025-10-09T19:07:48.073152,15.02531745,.00012891,43.0041,79.0106,255.0375,105.0325,0,U,57460,999,12241,-.18147863E-4,-.449E-5,0
STARLINK-30229,2023-107E,2025-10-09T11:28:20.179776,15.02531003,.0001322,43.0020,80.9119,270.8521,89.2169,0,U,57461,999,12236,-.13506E-3,-.2027E-4,0
STARLINK-30088,2023-107F,2025-10-09T19:03:00.006048,15.02536223,.000207,43.0042,78.9827,285.7764,74.2850,0,U,57462,999,12241,.7295947E-5,-.105E-5,0
STARLINK-30091,2023-107G,2025-10-09T12:30:30.112704,15.02537380,.0001213,43.0033,80.3787,266.7839,93.2865,0,U,57463,999,12237,-.20639E-4,-.482E-5,0
STARLINK-30116,2023-107J,2025-10-09T18:55:00.746112,15.02527933,.00009185,43.0031,78.9447,261.4572,98.6166,0,U,57465,999,12241,-.20075202E-3,-.2914E-4,0
STARLINK-30092,2023-107L,2025-10-09T12:20:54.528000,15.02546993,.0001806,43.0037,80.3273,242.9029,117.1629,0,U,57467,999,12237,.12417E-3,.1474E-4,0
STARLINK-30039,2023-107M,2025-10-09T12:16:08.008320,15.02533628,.000145,43.0036,80.3032,280.5829,79.4850,0,U,57468,999,12237,.17027E-3,.2097E-4,0
STARLINK-30171,2023-107N,2025-10-09T12:06:32.135904,15.02539545,.0001332,43.0064,80.2570,275.3402,84.7289,0,U,57469,999,12237,-.49678E-4,-.875E-5,0
STARLINK-30186,2023-107P,2025-10-09T18:34:14.460672,15.02541371,.00016239,43.0025,78.8338,265.8251,94.2406,0,U,57470,999,12241,.1279826E-3,.1526E-4,0
STARLINK-30190,2023-107Q,2025-10-09T14:37:23.526912,15.53689835,.0034531,42.9847,35.7476,350.0308,9.9865,0,U,57471,999,12290,.52882883E-2,.371961E-2,0
STARLINK-30204,2023-107R,2025-10-09T20:00:22.697856,15.02532837,.000108,43.0021,78.4212,269.8619,90.2099,0,U,57472,999,12242,-.24046503E-4,-.528E-5,0
STARLINK-30187,2023-107S,2025-10-09T19:55:34.864032,15.02545546,.0001212,43.0029,78.3873,268.3969,91.6735,0,U,57473,999,12242,.93195248E-4,.1056E-4,0
STARLINK-30110,2023-107T,2025-10-09T09:31:59.467584,15.33714140,.0028064,42.9979,39.5737,334.0038,25.9405,0,U,57474,999,12284,.35709E-2,.122043E-2,0
STARLINK-30155,2023-107U,2025-10-09T21:16:55.449696,15.02534841,.0001492,43.0042,77.9604,275.9629,84.1043,0,U,57475,999,12243,.69923E-4,.741E-5,0
STARLINK-30161,2023-107V,2025-10-09T18:00:40.200192,15.02535520,.00014424,43.0042,78.6589,267.0877,92.9800,0,U,57476,999,12241,.20141794E-4,.68E-6,0
STARLINK-30176,2023-107W,2025-10-09T21:08:52.662912,15.02569514,.0001825,43.0046,77.9196,271.0642,88.9991,0,U,57477,999,12243,.35985E-3,.4665E-4,0
STARLINK-30154,2023-113A,2025-10-10T05:38:25.276992,15.02544175,.00011604,43.0025,115.2179,270.9990,89.0719,0,U,57495,999,12086,.77491937E-4,.844E-5,0
STARLINK-30145,2023-113B,2025-10-10T05:14:26.495808,15.02535402,.00012234,43.0026,115.1058,260.1582,99.9122,0,U,57496,999,12091,-.12318637E-4,-.37E-5,0
STARLINK-30226,2023-113C,2025-10-09T21:11:00.487392,15.02534918,.0001147,43.0031,116.8971,256.4036,103.6679,0,U,57497,999,12087,.18132E-4,.41E-6,0
STARLINK-30203,2023-113D,2025-10-10T00:08:04.712640,15.02532479,.00012632,43.0034,116.0930,258.5105,101.5595,0,U,57498,999,12101,.14803524E-4,-.4E-7,0
STARLINK-30169,2023-113E,2025-10-10T05:38:50.400384,15.02537742,.00011971,43.0032,102.5156,261.7337,98.3370,0,U,57499,999,12101,.51734776E-4,.495E-5,0
STARLINK-30164,2023-113F,2025-10-10T06:16:36.628320,15.02533247,.0001358,43.0031,114.5689,268.1288,91.9399,0,U,57500,999,12103,-.10198825E-3,-.1581E-4,0
STARLINK-30072,2023-113G,2025-10-10T06:07:00.977088,15.02534281,.00008522,43.0009,114.5122,267.5937,92.4808,0,U,57501,999,12092,-.1339265E-5,-.222E-5,0
STARLINK-30228,2023-113H,2025-10-09T20:24:48.134304,15.34725773,.00169356,42.9925,80.9066,304.4846,55.4408,0,U,57502,999,12128,.17964233E-2,.62283E-3,0
STARLINK-30230,2023-113J,2025-10-10T06:21:23.830560,15.02535540,.00014678,43.0026,114.5887,271.0504,89.0170,0,U,57503,999,12092,.44747036E-4,.401E-5,0
STARLINK-30213,2023-113K,2025-10-10T06:02:23.639136,15.02532024,.00009399,43.0026,115.3371,270.8921,89.1814,0,U,57504,999,12102,-.375337E-6,-.209E-5,0
